start=new Date('2023-03-04T00:00:00.000Z').valueOf();
sats=[{"APOAPSIS":"548.105","PERIOD":"95.589","LAUNCH_DATE":"2021-05-26","REF_FRAME":"TEME","EPHEMERIS_TYPE":"0","SEMIMAJOR_AXIS":"6925.214","NORAD_CAT_ID":"48653","GP_ID":"227401105","EPOCH":"2023-03-03T07:49:04.386144","PERIAPSIS":"546.052","MEAN_MOTION":"15.06444067","ELEMENT_SET_NO":"999","ARG_OF_PERICENTER":"93.6343","SITE":"AFETR","CENTER_NAME":"EARTH","OBJECT_ID":"2021-044R","BSTAR":"0.00223960000000","MEAN_ELEMENT_THEORY":"SGP4","MEAN_MOTION_DOT":"0.00033275","RCS_SIZE":"LARGE","TLE_LINE2":"2 48653  53.0540  30.3231 0001482  93.6343 266.4815 15.06444067 97555","FILE":"3850163","OBJECT_NAME":"STARLINK-2720","REV_AT_EPOCH":"9755","COUNTRY_CODE":"US","MEAN_ANOMALY":"266.4815","RA_OF_ASC_NODE":"30.3231","ECCENTRICITY":"0.00014820","INCLINATION":"53.0540","TLE_LINE1":"1 48653U 21044R   23062.32574521  .00033275  00000-0  22396-2 0  9993","DECAY_DATE":null,"OBJECT_TYPE":"PAYLOAD","TIME_SYSTEM":"UTC","CLASSIFICATION_TYPE":"U","MEAN_MOTION_DDOT":"0.0000000000000"},{"CENTER_NAME":"EARTH","OBJECT_ID":"2021-044S","BSTAR":"0.00262560000000","MEAN_ELEMENT_THEORY":"SGP4","MEAN_MOTION_DOT":"0.00039107","SITE":"AFETR","ELEMENT_SET_NO":"999","ARG_OF_PERICENTER":"90.7571","MEAN_MOTION":"15.06459104","PERIAPSIS":"545.798","SEMIMAJOR_AXIS":"6925.167","NORAD_CAT_ID":"48654","GP_ID":"227401848","EPOCH":"2023-03-03T07:43:46.072992","REF_FRAME":"TEME","EPHEMERIS_TYPE":"0","APOAPSIS":"548.266","PERIOD":"95.588","LAUNCH_DATE":"2021-05-26","CLASSIFICATION_TYPE":"U","MEAN_MOTION_DDOT":"0.0000000000000","OBJECT_TYPE":"PAYLOAD","TIME_SYSTEM":"UTC","ECCENTRICITY":"0.00017820","INCLINATION":"53.0548","TLE_LINE1":"1 48654U 21044S   23062.32206103  .00039107  00000-0  26256-2 0  9991","DECAY_DATE":null,"COUNTRY_CODE":"US","MEAN_ANOMALY":"269.3622","RA_OF_ASC_NODE":"30.3448","REV_AT_EPOCH":"9755","RCS_SIZE":"LARGE","TLE_LINE2":"2 48654  53.0548  30.3448 0001782  90.7571 269.3622 15.06459104 97554","FILE":"3850163","OBJECT_NAME":"STARLINK-2651"},{"EPOCH":"2023-03-03T04:27:23.174496","GP_ID":"227402084","NORAD_CAT_ID":"48655","SEMIMAJOR_AXIS":"6925.199","PERIAPSIS":"545.746","LAUNCH_DATE":"2021-05-26","PERIOD":"95.589","APOAPSIS":"548.382","EPHEMERIS_TYPE":"0","REF_FRAME":"TEME","SITE":"AFETR","MEAN_MOTION_DOT":"0.00023811","BSTAR":"0.00160990000000","MEAN_ELEMENT_THEORY":"SGP4","OBJECT_ID":"2021-044T","CENTER_NAME":"EARTH","MEAN_MOTION":"15.06448731","ARG_OF_PERICENTER":"84.6510","ELEMENT_SET_NO":"999","RA_OF_ASC_NODE":"30.9498","MEAN_ANOMALY":"275.4696","COUNTRY_CODE":"US","OBJECT_NAME":"STARLINK-2657","FILE":"3850163","TLE_LINE2":"2 48655  53.0536  30.9498 0001903  84.6510 275.4696 15.06448731 97534","RCS_SIZE":"LARGE","REV_AT_EPOCH":"9753","TIME_SYSTEM":"UTC","OBJECT_TYPE":"PAYLOAD","MEAN_MOTION_DDOT":"0.0000000000000","CLASSIFICATION_TYPE":"U","DECAY_DATE":null,"TLE_LINE1":"1 48655U 21044T   23062.18568489  .00023811  00000-0  16099-2 0  9993","INCLINATION":"53.0536","ECCENTRICITY":"0.00019030"},{"DECAY_DATE":null,"TLE_LINE1":"1 48656U 21044U   23062.31469068  .00035024  00000-0  23559-2 0  9990","INCLINATION":"53.0548","ECCENTRICITY":"0.00014740","TIME_SYSTEM":"UTC","OBJECT_TYPE":"PAYLOAD","MEAN_MOTION_DDOT":"0.0000000000000","CLASSIFICATION_TYPE":"U","FILE":"3850163","OBJECT_NAME":"STARLINK-2701","TLE_LINE2":"2 48656  53.0548  30.3691 0001474  96.6029 263.5128 15.06441533 97551","RCS_SIZE":"LARGE","REV_AT_EPOCH":"9755","RA_OF_ASC_NODE":"30.3691","MEAN_ANOMALY":"263.5128","COUNTRY_CODE":"US","MEAN_MOTION":"15.06441533","ARG_OF_PERICENTER":"96.6029","ELEMENT_SET_NO":"999","SITE":"AFETR","MEAN_MOTION_DOT":"0.00035024","BSTAR":"0.00235590000000","MEAN_ELEMENT_THEORY":"SGP4","OBJECT_ID":"2021-044U","CENTER_NAME":"EARTH","LAUNCH_DATE":"2021-05-26","PERIOD":"95.590","APOAPSIS":"548.107","EPHEMERIS_TYPE":"0","REF_FRAME":"TEME","EPOCH":"2023-03-03T07:33:09.274752","GP_ID":"227400858","NORAD_CAT_ID":"48656","SEMIMAJOR_AXIS":"6925.221","PERIAPSIS":"546.065"},{"LAUNCH_DATE":"2021-05-26","PERIOD":"95.589","APOAPSIS":"548.040","EPHEMERIS_TYPE":"0","REF_FRAME":"TEME","GP_ID":"227433092","EPOCH":"2023-03-03T15:25:31.591200","SEMIMAJOR_AXIS":"6925.220","NORAD_CAT_ID":"48657","PERIAPSIS":"546.129","MEAN_MOTION":"15.06442022","ARG_OF_PERICENTER":"118.1535","ELEMENT_SET_NO":"999","SITE":"AFETR","BSTAR":"0.00183110000000","MEAN_ELEMENT_THEORY":"SGP4","MEAN_MOTION_DOT":"0.00027129","CENTER_NAME":"EARTH","OBJECT_ID":"2021-044V","FILE":"3850400","OBJECT_NAME":"STARLINK-2734","TLE_LINE2":"2 48657  53.0554  28.8972 0001380 118.1535 241.9593 15.06442022 97607","RCS_SIZE":"LARGE","REV_AT_EPOCH":"9760","MEAN_ANOMALY":"241.9593","RA_OF_ASC_NODE":"28.8972","COUNTRY_CODE":"US","INCLINATION":"53.0554","TLE_LINE1":"1 48657U 21044V   23062.64272675  .00027129  00000-0  18311-2 0  9990","DECAY_DATE":null,"ECCENTRICITY":"0.00013800","OBJECT_TYPE":"PAYLOAD","TIME_SYSTEM":"UTC","CLASSIFICATION_TYPE":"U","MEAN_MOTION_DDOT":"0.0000000000000"},{"MEAN_MOTION":"15.06440292","ARG_OF_PERICENTER":"95.3340","ELEMENT_SET_NO":"999","SITE":"AFETR","MEAN_MOTION_DOT":"0.00016983","BSTAR":"0.00115500000000","MEAN_ELEMENT_THEORY":"SGP4","OBJECT_ID":"2021-044W","CENTER_NAME":"EARTH","LAUNCH_DATE":"2021-05-26","PERIOD":"95.590","APOAPSIS":"547.842","EPHEMERIS_TYPE":"0","REF_FRAME":"TEME","EPOCH":"2023-03-03T15:20:14.103168","GP_ID":"227431839","NORAD_CAT_ID":"48658","SEMIMAJOR_AXIS":"6925.225","PERIAPSIS":"546.338","DECAY_DATE":null,"INCLINATION":"53.0553","TLE_LINE1":"1 48658U 21044W   23062.63905212  .00016983  00000-0  11550-2 0  9994","ECCENTRICITY":"0.00010860","TIME_SYSTEM":"UTC","OBJECT_TYPE":"PAYLOAD","MEAN_MOTION_DDOT":"0.0000000000000","CLASSIFICATION_TYPE":"U","OBJECT_NAME":"STARLINK-2647","FILE":"3850400","RCS_SIZE":"LARGE","TLE_LINE2":"2 48658  53.0553  28.9134 0001086  95.3340 264.7773 15.06440292 97601","REV_AT_EPOCH":"9760","RA_OF_ASC_NODE":"28.9134","MEAN_ANOMALY":"264.7773","COUNTRY_CODE":"US"},{"PERIAPSIS":"546.339","EPOCH":"2023-03-03T07:17:14.075232","GP_ID":"227401585","NORAD_CAT_ID":"48659","SEMIMAJOR_AXIS":"6925.156","EPHEMERIS_TYPE":"0","REF_FRAME":"TEME","LAUNCH_DATE":"2021-05-26","PERIOD":"95.588","APOAPSIS":"547.703","MEAN_MOTION_DOT":"0.00049508","BSTAR":"0.00331370000000","MEAN_ELEMENT_THEORY":"SGP4","OBJECT_ID":"2021-044X","CENTER_NAME":"EARTH","SITE":"AFETR","ARG_OF_PERICENTER":"99.4381","ELEMENT_SET_NO":"999","MEAN_MOTION":"15.06462739","RA_OF_ASC_NODE":"30.4175","MEAN_ANOMALY":"260.6720","COUNTRY_CODE":"US","REV_AT_EPOCH":"9755","FILE":"3850163","OBJECT_NAME":"STARLINK-2717","RCS_SIZE":"LARGE","TLE_LINE2":"2 48659  53.0530  30.4175 0000985  99.4381 260.6720 15.06462739 97558","MEAN_MOTION_DDOT":"0.0000000000000","CLASSIFICATION_TYPE":"U","TIME_SYSTEM":"UTC","OBJECT_TYPE":"PAYLOAD","DECAY_DATE":null,"INCLINATION":"53.0530","TLE_LINE1":"1 48659U 21044X   23062.30363513  .00049508  00000-0  33137-2 0  9995","ECCENTRICITY":"0.00009850"},{"APOAPSIS":"547.905","PERIOD":"95.590","LAUNCH_DATE":"2021-05-26","REF_FRAME":"TEME","EPHEMERIS_TYPE":"0","SEMIMAJOR_AXIS":"6925.225","NORAD_CAT_ID":"48660","GP_ID":"227400359","EPOCH":"2023-03-03T07:11:55.571136","PERIAPSIS":"546.275","MEAN_MOTION":"15.06440405","ELEMENT_SET_NO":"999","ARG_OF_PERICENTER":"83.8099","SITE":"AFETR","CENTER_NAME":"EARTH","OBJECT_ID":"2021-044Y","MEAN_ELEMENT_THEORY":"SGP4","BSTAR":"0.00229480000000","MEAN_MOTION_DOT":"0.00034103","TLE_LINE2":"2 48660  53.0548  30.4349 0001177  83.8099 276.3024 15.06440405 97556","RCS_SIZE":"LARGE","FILE":"3850163","OBJECT_NAME":"STARLINK-2688","REV_AT_EPOCH":"9755","COUNTRY_CODE":"US","MEAN_ANOMALY":"276.3024","RA_OF_ASC_NODE":"30.4349","ECCENTRICITY":"0.00011770","INCLINATION":"53.0548","TLE_LINE1":"1 48660U 21044Y   23062.29994874  .00034103  00000-0  22948-2 0  9998","DECAY_DATE":null,"OBJECT_TYPE":"PAYLOAD","TIME_SYSTEM":"UTC","CLASSIFICATION_TYPE":"U","MEAN_MOTION_DDOT":"0.0000000000000"},{"REV_AT_EPOCH":"9769","RCS_SIZE":"LARGE","TLE_LINE2":"2 48661  53.0550  20.4331 0001296  91.4300 268.6838 15.06438216 97691","FILE":"3850163","OBJECT_NAME":"STARLINK-2708","COUNTRY_CODE":"US","MEAN_ANOMALY":"268.6838","RA_OF_ASC_NODE":"20.4331","ECCENTRICITY":"0.00012960","TLE_LINE1":"1 48661U 21044Z   23062.30086530  .00012591  00000-0  86178-3 0  9995","INCLINATION":"53.0550","DECAY_DATE":null,"CLASSIFICATION_TYPE":"U","MEAN_MOTION_DDOT":"0.0000000000000","OBJECT_TYPE":"PAYLOAD","TIME_SYSTEM":"UTC","REF_FRAME":"TEME","EPHEMERIS_TYPE":"0","PERIOD":"95.590","APOAPSIS":"547.994","LAUNCH_DATE":"2021-05-26","PERIAPSIS":"546.199","SEMIMAJOR_AXIS":"6925.231","NORAD_CAT_ID":"48661","GP_ID":"227401106","EPOCH":"2023-03-03T07:13:14.761920","ELEMENT_SET_NO":"999","ARG_OF_PERICENTER":"91.4300","MEAN_MOTION":"15.06438216","CENTER_NAME":"EARTH","OBJECT_ID":"2021-044Z","BSTAR":"0.00086178000000","MEAN_ELEMENT_THEORY":"SGP4","MEAN_MOTION_DOT":"0.00012591","SITE":"AFETR"},{"PERIAPSIS":"546.251","SEMIMAJOR_AXIS":"6925.232","NORAD_CAT_ID":"48662","GP_ID":"227401849","EPOCH":"2023-03-03T03:56:52.145088","REF_FRAME":"TEME","EPHEMERIS_TYPE":"0","APOAPSIS":"547.943","PERIOD":"95.590","LAUNCH_DATE":"2021-05-26","CENTER_NAME":"EARTH","OBJECT_ID":"2021-044AA","MEAN_ELEMENT_THEORY":"SGP4","BSTAR":"0.00163100000000","MEAN_MOTION_DOT":"0.00024121","SITE":"AFETR","ELEMENT_SET_NO":"999","ARG_OF_PERICENTER":"90.4735","MEAN_MOTION":"15.06438072","COUNTRY_CODE":"US","MEAN_ANOMALY":"269.6394","RA_OF_ASC_NODE":"21.0522","REV_AT_EPOCH":"9767","TLE_LINE2":"2 48662  53.0548  21.0522 0001222  90.4735 269.6394 15.06438072 97674","RCS_SIZE":"LARGE","OBJECT_NAME":"STARLINK-2726","FILE":"3850163","CLASSIFICATION_TYPE":"U","MEAN_MOTION_DDOT":"0.0000000000000","OBJECT_TYPE":"PAYLOAD","TIME_SYSTEM":"UTC","ECCENTRICITY":"0.00012220","INCLINATION":"53.0548","TLE_LINE1":"1 48662U 21044AA  23062.16449242  .00024121  00000-0  16310-2 0  9995","DECAY_DATE":null}];
